{
  "type": "FeatureCollection",
  "features": [
    {
      "type": "Feature",
      "properties": {
        "norad_id": 25590,
        "name": "COSMOS 2361",
        "group": "musson",
        "lat": 77.87605311249824,
        "lon": 9.581379620656902,
        "alt_km": 999.553058210272,
        "timestamp": "2025-12-25T22:42:17.281097+00:00",
        "meta_object_name": "COSMOS 2361",
        "meta_object_id": "1998-076A",
        "meta_epoch": "2025-12-25T10:37:16.860000",
        "meta_mean_motion": 13.73218874,
        "meta_eccentricity": 0.0030332,
        "meta_inclination": 82.9345,
        "meta_ra_of_asc_node": 334.6908,
        "meta_arg_of_pericenter": 228.8467,
        "meta_mean_anomaly": 243.9016,
        "meta_ephemeris_type": 0,
        "meta_classification_type": "U",
        "meta_norad_cat_id": 25590,
        "meta_element_set_no": 999,
        "meta_rev_at_epoch": 35285,
        "meta_bstar": 5.4406e-05,
        "meta_mean_motion_dot": 6.5e-07,
        "meta_mean_motion_ddot": 0,
        "tle_line1": "1 25590U 98076A   25359.44255625  .00000065  00000+0  54406-4 0  9991",
        "tle_line2": "2 25590  82.9345 334.6908 0030332 228.8467 243.9016 13.73218874352857"
      },
      "geometry": {
        "type": "Point",
        "coordinates": [
          9.581379620656902,
          77.87605311249824
        ]
      }
    },
    {
      "type": "Feature",
      "properties": {
        "norad_id": 26818,
        "name": "COSMOS 2378",
        "group": "musson",
        "lat": -17.0153173001299,
        "lon": 172.1094383636003,
        "alt_km": 968.201438625324,
        "timestamp": "2025-12-25T22:42:17.281117+00:00",
        "meta_object_name": "COSMOS 2378",
        "meta_object_id": "2001-023A",
        "meta_epoch": "2025-12-25T02:52:27.994944",
        "meta_mean_motion": 13.7414296,
        "meta_eccentricity": 0.00331845,
        "meta_inclination": 82.9272,
        "meta_ra_of_asc_node": 350.5445,
        "meta_arg_of_pericenter": 170.2004,
        "meta_mean_anomaly": 261.4901,
        "meta_ephemeris_type": 0,
        "meta_classification_type": "U",
        "meta_norad_cat_id": 26818,
        "meta_element_set_no": 999,
        "meta_rev_at_epoch": 23093,
        "meta_bstar": 3.3956905e-05,
        "meta_mean_motion_dot": 4.7e-07,
        "meta_mean_motion_ddot": 0,
        "tle_line1": "1 26818U 01023A   25359.11976846  .00000047  00000+0  33957-4 0  9998",
        "tle_line2": "2 26818  82.9272 350.5445 0033184 170.2004 261.4901 13.74142960230933"
      },
      "geometry": {
        "type": "Point",
        "coordinates": [
          172.1094383636003,
          -17.0153173001299
        ]
      }
    },
    {
      "type": "Feature",
      "properties": {
        "norad_id": 27436,
        "name": "COSMOS 2389",
        "group": "musson",
        "lat": 82.57064800856548,
        "lon": 45.62137870026045,
        "alt_km": 960.3713044352098,
        "timestamp": "2025-12-25T22:42:17.281130+00:00",
        "meta_object_name": "COSMOS 2389",
        "meta_object_id": "2002-026A",
        "meta_epoch": "2025-12-25T08:52:06.455424",
        "meta_mean_motion": 13.75155997,
        "meta_eccentricity": 0.0047068,
        "meta_inclination": 82.9513,
        "meta_ra_of_asc_node": 297.6356,
        "meta_arg_of_pericenter": 26.2532,
        "meta_mean_anomaly": 93.125,
        "meta_ephemeris_type": 0,
        "meta_classification_type": "U",
        "meta_norad_cat_id": 27436,
        "meta_element_set_no": 999,
        "meta_rev_at_epoch": 18322,
        "meta_bstar": 6.7754e-05,
        "meta_mean_motion_dot": 8.1e-07,
        "meta_mean_motion_ddot": 0,
        "tle_line1": "1 27436U 02026A   25359.36951916  .00000081  00000+0  67754-4 0  9997",
        "tle_line2": "2 27436  82.9513 297.6356 0047068  26.2532  93.1250 13.75155997183223"
      },
      "geometry": {
        "type": "Point",
        "coordinates": [
          45.62137870026045,
          82.57064800856548
        ]
      }
    },
    {
      "type": "Feature",
      "properties": {
        "norad_id": 27818,
        "name": "COSMOS 2398",
        "group": "musson",
        "lat": -82.36279021700645,
        "lon": -164.41622952425254,
        "alt_km": 1021.5129276010975,
        "timestamp": "2025-12-25T22:42:17.281142+00:00",
        "meta_object_name": "COSMOS 2398",
        "meta_object_id": "2003-023A",
        "meta_epoch": "2025-12-25T17:56:47.855904",
        "meta_mean_motion": 13.72387171,
        "meta_eccentricity": 0.003269,
        "meta_inclination": 82.9482,
        "meta_ra_of_asc_node": 263.113,
        "meta_arg_of_pericenter": 77.1579,
        "meta_mean_anomaly": 296.926,
        "meta_ephemeris_type": 0,
        "meta_classification_type": "U",
        "meta_norad_cat_id": 27818,
        "meta_element_set_no": 999,
        "meta_rev_at_epoch": 12995,
        "meta_bstar": 6.895e-05,
        "meta_mean_motion_dot": 7.9e-07,
        "meta_mean_motion_ddot": 0,
        "tle_line1": "1 27818U 03023A   25359.74777611  .00000079  00000+0  68950-4 0  9995",
        "tle_line2": "2 27818  82.9482 263.1130 0032690  77.1579 296.9260 13.72387171129953"
      },
      "geometry": {
        "type": "Point",
        "coordinates": [
          -164.41622952425254,
          -82.36279021700645
        ]
      }
    },
    {
      "type": "Feature",
      "properties": {
        "norad_id": 28380,
        "name": "COSMOS 2407",
        "group": "musson",
        "lat": -64.31999789264857,
        "lon": -171.77862920795158,
        "alt_km": 980.9870034926262,
        "timestamp": "2025-12-25T22:42:17.281153+00:00",
        "meta_object_name": "COSMOS 2407",
        "meta_object_id": "2004-028A",
        "meta_epoch": "2025-12-25T16:22:25.250016",
        "meta_mean_motion": 13.7631509,
        "meta_eccentricity": 0.0039705,
        "meta_inclination": 82.9592,
        "meta_ra_of_asc_node": 203.3098,
        "meta_arg_of_pericenter": 19.4498,
        "meta_mean_anomaly": 49.5089,
        "meta_ephemeris_type": 0,
        "meta_classification_type": "U",
        "meta_norad_cat_id": 28380,
        "meta_element_set_no": 999,
        "meta_rev_at_epoch": 7601,
        "meta_bstar": 3.6831e-05,
        "meta_mean_motion_dot": 5.1e-07,
        "meta_mean_motion_ddot": 0,
        "tle_line1": "1 28380U 04028A   25359.68223669  .00000051  00000+0  36831-4 0  9991",
        "tle_line2": "2 28380  82.9592 203.3098 0039705  19.4498  49.5089 13.76315090 76016"
      },
      "geometry": {
        "type": "Point",
        "coordinates": [
          -171.77862920795158,
          -64.31999789264857
        ]
      }
    },
    {
      "type": "Feature",
      "properties": {
        "norad_id": 28521,
        "name": "COSMOS 2414",
        "group": "musson",
        "lat": 28.194175002309606,
        "lon": 178.47756875507704,
        "alt_km": 926.4868916181686,
        "timestamp": "2025-12-25T22:42:17.281163+00:00",
        "meta_object_name": "COSMOS 2414",
        "meta_object_id": "2005-002A",
        "meta_epoch": "2025-12-25T10:27:24.414336",
        "meta_mean_motion": 13.87904583,
        "meta_eccentricity": 0.0041426,
        "meta_inclination": 82.9488,
        "meta_ra_of_asc_node": 175.0593,
        "meta_arg_of_pericenter": 104.4935,
        "meta_mean_anomaly": 256.083,
        "meta_ephemeris_type": 0,
        "meta_classification_type": "U",
        "meta_norad_cat_id": 28521,
        "meta_element_set_no": 999,
        "meta_rev_at_epoch": 5971,
        "meta_bstar": 4.7795e-05,
        "meta_mean_motion_dot": 7.3e-07,
        "meta_mean_motion_ddot": 0,
        "tle_line1": "1 28521U 05002A   25359.43569924  .00000073  00000+0  47795-4 0  9996",
        "tle_line2": "2 28521  82.9488 175.0593 0041426 104.4935 256.0830 13.87904583 59716"
      },
      "geometry": {
        "type": "Point",
        "coordinates": [
          178.47756875507704,
          28.194175002309606
        ]
      }
    },
    {
      "type": "Feature",
      "properties": {
        "norad_id": 32052,
        "name": "COSMOS 2429",
        "group": "musson",
        "lat": -80.1229262172785,
        "lon": -71.46493417395318,
        "alt_km": 985.6789468092202,
        "timestamp": "2025-12-25T22:42:17.281174+00:00",
        "meta_object_name": "COSMOS 2429",
        "meta_object_id": "2007-038A",
        "meta_epoch": "2025-12-25T10:52:56.318304",
        "meta_mean_motion": 13.75150602,
        "meta_eccentricity": 0.0038484,
        "meta_inclination": 82.9808,
        "meta_ra_of_asc_node": 333.936,
        "meta_arg_of_pericenter": 2.8321,
        "meta_mean_anomaly": 357.3045,
        "meta_ephemeris_type": 0,
        "meta_classification_type": "U",
        "meta_norad_cat_id": 32052,
        "meta_element_set_no": 999,
        "meta_rev_at_epoch": 91777,
        "meta_bstar": 4.8879e-05,
        "meta_mean_motion_dot": 6.2e-07,
        "meta_mean_motion_ddot": 0,
        "tle_line1": "1 32052U 07038A   25359.45342961  .00000062  00000+0  48879-4 0  9995",
        "tle_line2": "2 32052  82.9808 333.9360 0038484   2.8321 357.3045 13.75150602917777"
      },
      "geometry": {
        "type": "Point",
        "coordinates": [
          -71.46493417395318,
          -80.1229262172785
        ]
      }
    },
    {
      "type": "Feature",
      "properties": {
        "norad_id": 35635,
        "name": "COSMOS 2454",
        "group": "musson",
        "lat": 4.340631236087981,
        "lon": -21.903866427199322,
        "alt_km": 941.9549418827992,
        "timestamp": "2025-12-25T22:42:17.281184+00:00",
        "meta_object_name": "COSMOS 2454",
        "meta_object_id": "2009-039A",
        "meta_epoch": "2025-12-25T13:33:16.712064",
        "meta_mean_motion": 13.89930287,
        "meta_eccentricity": 0.0019974,
        "meta_inclination": 82.9558,
        "meta_ra_of_asc_node": 158.9229,
        "meta_arg_of_pericenter": 39.1408,
        "meta_mean_anomaly": 29.5942,
        "meta_ephemeris_type": 0,
        "meta_classification_type": "U",
        "meta_norad_cat_id": 35635,
        "meta_element_set_no": 999,
        "meta_rev_at_epoch": 83328,
        "meta_bstar": 5.8633e-05,
        "meta_mean_motion_dot": 8.8e-07,
        "meta_mean_motion_ddot": 0,
        "tle_line1": "1 35635U 09039A   25359.56477676  .00000088  00000+0  58633-4 0  9999",
        "tle_line2": "2 35635  82.9558 158.9229 0019974  39.1408  29.5942 13.89930287833287"
      },
      "geometry": {
        "type": "Point",
        "coordinates": [
          -21.903866427199322,
          4.340631236087981
        ]
      }
    },
    {
      "type": "Feature",
      "properties": {
        "norad_id": 36519,
        "name": "COSMOS 2463",
        "group": "musson",
        "lat": 66.62043946542805,
        "lon": 33.614952620562434,
        "alt_km": 1012.8167310659292,
        "timestamp": "2025-12-25T22:42:17.281195+00:00",
        "meta_object_name": "COSMOS 2463",
        "meta_object_id": "2010-017A",
        "meta_epoch": "2025-12-25T14:11:33.904896",
        "meta_mean_motion": 13.71650272,
        "meta_eccentricity": 0.0034817,
        "meta_inclination": 82.9603,
        "meta_ra_of_asc_node": 17.2678,
        "meta_arg_of_pericenter": 251.0493,
        "meta_mean_anomaly": 226.2748,
        "meta_ephemeris_type": 0,
        "meta_classification_type": "U",
        "meta_norad_cat_id": 36519,
        "meta_element_set_no": 999,
        "meta_rev_at_epoch": 78413,
        "meta_bstar": 3.5333e-05,
        "meta_mean_motion_dot": 4.7e-07,
        "meta_mean_motion_ddot": 0,
        "tle_line1": "1 36519U 10017A   25359.59136464  .00000047  00000+0  35333-4 0  9996",
        "tle_line2": "2 36519  82.9603  17.2678 0034817 251.0493 226.2748 13.71650272784130"
      },
      "geometry": {
        "type": "Point",
        "coordinates": [
          33.614952620562434,
          66.62043946542805
        ]
      }
    }
  ]
}